*******************************************************************************
Ephemeris / WWW_USER Thu Mar  7 10:12:13 2019 Pasadena, USA      / Horizons    
*******************************************************************************
Target body name: Parker Solar Probe (spacecraft) (-96) {source: spp_nom_20180812_2025083}
Center body name: Earth (399)                     {source: DE431mx}
Center-site name: Green Bank (GBT)
*******************************************************************************
Start time      : A.D. 2019-Mar-07 12:30:00.0000 UT      
Stop  time      : A.D. 2019-Mar-07 18:30:00.0000 UT      
Step-size       : 1 minutes
*******************************************************************************
Target pole/equ : No model available
Target radii    : (unavailable)                                                
Center geodetic : 280.160200,38.4330940,0.8760930 {E-lon(deg),Lat(deg),Alt(km)}
Center cylindric: 280.160200,5003.37558,3943.7589 {E-lon(deg),Dxy(km),Dz(km)}
Center pole/equ : High-precision EOP model        {East-longitude positive}
Center radii    : 6378.1 x 6378.1 x 6356.8 km     {Equator, meridian, pole}    
Target primary  : Earth
Vis. interferer : MOON (R_eq= 1737.400) km        {source: DE431mx}
Rel. light bend : Sun, EARTH                      {source: DE431mx}
Rel. lght bnd GM: 1.3271E+11, 3.9860E+05 km^3/s^2                              
Atmos refraction: NO (AIRLESS)
RA format       : HMS
Time format     : CAL 
RTS-only print  : NO       
EOP file        : eop.190306.p190528                                           
EOP coverage    : DATA-BASED 1962-JAN-20 TO 2019-MAR-06. PREDICTS-> 2019-MAY-27
Units conversion: 1 au= 149597870.700 km, c= 299792.458 km/s, 1 day= 86400.0 s 
Table cut-offs 1: Elevation (-90.0deg=NO ),Airmass (>38.000=NO), Daylight (NO )
Table cut-offs 2: Solar elongation (  0.0,180.0=NO ),Local Hour Angle( 0.0=NO )
Table cut-offs 3: RA/DEC angular rate (     0.0=NO )                           
*******************************************************************************************************************
 Date__(UT)__HR:MN     R.A._(ICRF/J2000.0)_DEC dRA*cosD d(DEC)/dt            delta      deldot    S-O-T /r    S-T-O
*******************************************************************************************************************
$$SOE
 2019-Mar-07 12:30 *   23 34 31.32 -04 13 56.7 137.2348  61.80218 1.64062645344099 -22.5861775   6.2421 /T   9.3662
 2019-Mar-07 12:31 *m  23 34 31.48 -04 13 55.6 137.2312  61.80298 1.64061739384044 -22.5864872   6.2421 /T   9.3664
 2019-Mar-07 12:32 *m  23 34 31.63 -04 13 54.6 137.2276  61.80377 1.64060833411702 -22.5867900   6.2421 /T   9.3665
 2019-Mar-07 12:33 *m  23 34 31.78 -04 13 53.6 137.2240  61.80457 1.64059927427350 -22.5870861   6.2421 /T   9.3666
 2019-Mar-07 12:34 *m  23 34 31.94 -04 13 52.6 137.2205  61.80537 1.64059021431257 -22.5873753   6.2421 /T   9.3668
 2019-Mar-07 12:35 *m  23 34 32.09 -04 13 51.5 137.2169  61.80617 1.64058115423699 -22.5876577   6.2421 /T   9.3669
 2019-Mar-07 12:36 *m  23 34 32.24 -04 13 50.5 137.2133  61.80697 1.64057209404948 -22.5879333   6.2421 /T   9.3670
 2019-Mar-07 12:37 *m  23 34 32.39 -04 13 49.5 137.2098  61.80777 1.64056303375276 -22.5882022   6.2421 /T   9.3672
 2019-Mar-07 12:38 *m  23 34 32.55 -04 13 48.4 137.2062  61.80857 1.64055397334953 -22.5884642   6.2421 /T   9.3673
 2019-Mar-07 12:39 *m  23 34 32.70 -04 13 47.4 137.2027  61.80938 1.64054491284256 -22.5887195   6.2421 /T   9.3674
 2019-Mar-07 12:40 *m  23 34 32.85 -04 13 46.4 137.1991  61.81019 1.64053585223452 -22.5889680   6.2421 /T   9.3675
 2019-Mar-07 12:41 *m  23 34 33.01 -04 13 45.3 137.1956  61.81100 1.64052679152817 -22.5892097   6.2421 /T   9.3677
 2019-Mar-07 12:42 *m  23 34 33.16 -04 13 44.3 137.1920  61.81181 1.64051773072616 -22.5894447   6.2421 /T   9.3678
 2019-Mar-07 12:43 *m  23 34 33.31 -04 13 43.3 137.1885  61.81262 1.64050866983126 -22.5896729   6.2421 /T   9.3679
 2019-Mar-07 12:44 *m  23 34 33.46 -04 13 42.3 137.1850  61.81343 1.64049960884616 -22.5898943   6.2421 /T   9.3681
 2019-Mar-07 12:45 *m  23 34 33.62 -04 13 41.2 137.1814  61.81425 1.64049054777358 -22.5901091   6.2421 /T   9.3682
 2019-Mar-07 12:46 *m  23 34 33.77 -04 13 40.2 137.1779  61.81506 1.64048148661619 -22.5903170   6.2421 /T   9.3683
 2019-Mar-07 12:47 *m  23 34 33.92 -04 13 39.2 137.1744  61.81588 1.64047242537671 -22.5905183   6.2421 /T   9.3685
 2019-Mar-07 12:48 *m  23 34 34.08 -04 13 38.1 137.1709  61.81670 1.64046336405786 -22.5907128   6.2421 /T   9.3686
 2019-Mar-07 12:49 *m  23 34 34.23 -04 13 37.1 137.1674  61.81752 1.64045430266229 -22.5909006   6.2421 /T   9.3687
 2019-Mar-07 12:50 *m  23 34 34.38 -04 13 36.1 137.1639  61.81834 1.64044524119273 -22.5910817   6.2421 /T   9.3688
 2019-Mar-07 12:51 *m  23 34 34.53 -04 13 35.1 137.1604  61.81916 1.64043617965186 -22.5912561   6.2421 /T   9.3690
 2019-Mar-07 12:52 *m  23 34 34.69 -04 13 34.0 137.1569  61.81999 1.64042711804237 -22.5914238   6.2421 /T   9.3691
 2019-Mar-07 12:53 *m  23 34 34.84 -04 13 33.0 137.1534  61.82081 1.64041805636692 -22.5915848   6.2421 /T   9.3692
 2019-Mar-07 12:54 *m  23 34 34.99 -04 13 32.0 137.1499  61.82164 1.64040899462822 -22.5917392   6.2421 /T   9.3694
 2019-Mar-07 12:55 *m  23 34 35.15 -04 13 30.9 137.1464  61.82247 1.64039993282894 -22.5918868   6.2421 /T   9.3695
 2019-Mar-07 12:56 *m  23 34 35.30 -04 13 29.9 137.1429  61.82330 1.64039087097172 -22.5920278   6.2421 /T   9.3696
 2019-Mar-07 12:57 *m  23 34 35.45 -04 13 28.9 137.1395  61.82413 1.64038180905929 -22.5921622   6.2421 /T   9.3698
 2019-Mar-07 12:58 *m  23 34 35.60 -04 13 27.8 137.1360  61.82497 1.64037274709429 -22.5922899   6.2421 /T   9.3699
 2019-Mar-07 12:59 *m  23 34 35.76 -04 13 26.8 137.1326  61.82580 1.64036368507940 -22.5924109   6.2421 /T   9.3700
 2019-Mar-07 13:00 *m  23 34 35.91 -04 13 25.8 137.1291  61.82664 1.64035462301728 -22.5925253   6.2421 /T   9.3702
 2019-Mar-07 13:01 *m  23 34 36.06 -04 13 24.8 137.1257  61.82748 1.64034556091055 -22.5926331   6.2421 /T   9.3703
 2019-Mar-07 13:02 *m  23 34 36.21 -04 13 23.7 137.1222  61.82832 1.64033649876191 -22.5927343   6.2421 /T   9.3704
 2019-Mar-07 13:03 *m  23 34 36.37 -04 13 22.7 137.1188  61.82916 1.64032743657403 -22.5928288   6.2421 /T   9.3706
 2019-Mar-07 13:04 *m  23 34 36.52 -04 13 21.7 137.1154  61.83000 1.64031837434947 -22.5929168   6.2421 /T   9.3707
 2019-Mar-07 13:05 *m  23 34 36.67 -04 13 20.6 137.1119  61.83084 1.64030931209097 -22.5929982   6.2421 /T   9.3708
 2019-Mar-07 13:06 *m  23 34 36.83 -04 13 19.6 137.1085  61.83169 1.64030024980113 -22.5930730   6.2421 /T   9.3709
 2019-Mar-07 13:07 *m  23 34 36.98 -04 13 18.6 137.1051  61.83254 1.64029118748258 -22.5931412   6.2421 /T   9.3711
 2019-Mar-07 13:08 *m  23 34 37.13 -04 13 17.5 137.1017  61.83338 1.64028212513797 -22.5932028   6.2421 /T   9.3712
 2019-Mar-07 13:09 *m  23 34 37.28 -04 13 16.5 137.0983  61.83423 1.64027306276992 -22.5932579   6.2421 /T   9.3713
 2019-Mar-07 13:10 *m  23 34 37.44 -04 13 15.5 137.0949  61.83508 1.64026400038107 -22.5933065   6.2421 /T   9.3715
 2019-Mar-07 13:11 *m  23 34 37.59 -04 13 14.4 137.0916  61.83594 1.64025493797406 -22.5933485   6.2421 /T   9.3716
 2019-Mar-07 13:12 *m  23 34 37.74 -04 13 13.4 137.0882  61.83679 1.64024587555147 -22.5933840   6.2421 /T   9.3717
 2019-Mar-07 13:13 *m  23 34 37.90 -04 13 12.4 137.0848  61.83765 1.64023681311593 -22.5934130   6.2421 /T   9.3719
 2019-Mar-07 13:14 *m  23 34 38.05 -04 13 11.4 137.0815  61.83850 1.64022775067005 -22.5934355   6.2421 /T   9.3720
 2019-Mar-07 13:15 *m  23 34 38.20 -04 13 10.3 137.0781  61.83936 1.64021868821644 -22.5934515   6.2422 /T   9.3721
 2019-Mar-07 13:16 *m  23 34 38.35 -04 13 09.3 137.0748  61.84022 1.64020962575770 -22.5934610   6.2422 /T   9.3723
 2019-Mar-07 13:17 *m  23 34 38.51 -04 13 08.3 137.0714  61.84108 1.64020056329644 -22.5934640   6.2422 /T   9.3724
 2019-Mar-07 13:18 *m  23 34 38.66 -04 13 07.2 137.0681  61.84194 1.64019150083524 -22.5934606   6.2422 /T   9.3725
 2019-Mar-07 13:19 *m  23 34 38.81 -04 13 06.2 137.0648  61.84281 1.64018243837670 -22.5934507   6.2422 /T   9.3727
 2019-Mar-07 13:20 *m  23 34 38.96 -04 13 05.2 137.0614  61.84367 1.64017337592340 -22.5934343   6.2422 /T   9.3728
 2019-Mar-07 13:21 *m  23 34 39.12 -04 13 04.1 137.0581  61.84454 1.64016431347790 -22.5934116   6.2422 /T   9.3729
 2019-Mar-07 13:22 *m  23 34 39.27 -04 13 03.1 137.0548  61.84540 1.64015525104283 -22.5933824   6.2422 /T   9.3730
 2019-Mar-07 13:23 *m  23 34 39.42 -04 13 02.1 137.0515  61.84627 1.64014618862073 -22.5933468   6.2422 /T   9.3732
 2019-Mar-07 13:24 *m  23 34 39.58 -04 13 01.1 137.0482  61.84714 1.64013712621417 -22.5933048   6.2422 /T   9.3733
 2019-Mar-07 13:25 *m  23 34 39.73 -04 13 00.0 137.0450  61.84802 1.64012806382572 -22.5932564   6.2422 /T   9.3734
 2019-Mar-07 13:26 *m  23 34 39.88 -04 12 59.0 137.0417  61.84889 1.64011900145793 -22.5932017   6.2422 /T   9.3736
 2019-Mar-07 13:27 *m  23 34 40.03 -04 12 58.0 137.0384  61.84976 1.64010993911339 -22.5931406   6.2422 /T   9.3737
 2019-Mar-07 13:28 *m  23 34 40.19 -04 12 56.9 137.0352  61.85064 1.64010087679460 -22.5930731   6.2422 /T   9.3738
 2019-Mar-07 13:29 *m  23 34 40.34 -04 12 55.9 137.0319  61.85152 1.64009181450414 -22.5929993   6.2422 /T   9.3740
 2019-Mar-07 13:30 *m  23 34 40.49 -04 12 54.9 137.0287  61.85240 1.64008275224454 -22.5929191   6.2422 /T   9.3741
 2019-Mar-07 13:31 *m  23 34 40.64 -04 12 53.8 137.0255  61.85328 1.64007369001833 -22.5928327   6.2422 /T   9.3742
 2019-Mar-07 13:32 *m  23 34 40.80 -04 12 52.8 137.0222  61.85416 1.64006462782804 -22.5927399   6.2422 /T   9.3744
 2019-Mar-07 13:33 *m  23 34 40.95 -04 12 51.8 137.0190  61.85504 1.64005556567621 -22.5926409   6.2422 /T   9.3745
 2019-Mar-07 13:34 *m  23 34 41.10 -04 12 50.7 137.0158  61.85593 1.64004650356532 -22.5925355   6.2422 /T   9.3746
